STARLINK-5175           
1 54079U 22136AE  22303.58334491 -.01183738  00000+0 -78774-2 0  9993
2 54079  53.2175  98.5516 0004680 269.3699 288.4160 15.77401979  1309
STARLINK-5160           
1 54080U 22136AF  22303.58334491 -.01226471  00000+0 -82187-2 0  9990
2 54080  53.2175  98.5543 0002116 273.6168 282.6610 15.77383116  1300
STARLINK-5165           
1 54081U 22136AG  22303.58334491 -.01155587  00000+0 -76733-2 0  9990
2 54081  53.2178  98.5493 0002563 252.1643 306.6332 15.77414696  1300
STARLINK-5210           
1 54082U 22136AH  22303.58334491 -.01204938  00000+0 -80309-2 0  9990
2 54082  53.2175  98.5502 0003513 274.5612 283.7200 15.77434178  1305
STARLINK-5178           
1 54083U 22136AJ  22303.58334491 -.01217427  00000+0 -80964-2 0  9995
2 54083  53.2174  98.5455 0002508 291.8992 268.8789 15.77525334  1309
STARLINK-5183           
1 54084U 22136AK  22303.58334491 -.01158457  00000+0 -76853-2 0  9995
2 54084  53.2174  98.5481 0003099 280.2163 279.0714 15.77434970  1304
STARLINK-5166           
1 54085U 22136AL  22303.58334491 -.01216309  00000+0 -80797-2 0  9999
2 54085  53.2174  98.5445 0003019 285.3247 275.9478 15.77541455  1305
STARLINK-5211           
1 54086U 22136AM  22303.58334491 -.01119304  00000+0 -74070-2 0  9994
2 54086  53.2171  98.5476 0001139  55.0683 144.7395 15.77422193  1302
STARLINK-5184           
1 54087U 22136AN  22303.58334491 -.01188447  00000+0 -78761-2 0  9990
2 54087  53.2174  98.5437 0002168 295.3436 266.4286 15.77539170  1306
STARLINK-5153           
1 54088U 22136AP  22303.58334491 -.01104936  00000+0 -72813-2 0  9994
2 54088  53.2173  98.5464 0005457 268.9698 291.3406 15.77426712  1304
STARLINK-5143           
1 54089U 22136AQ  22303.58334491 -.01216639  00000+0 -80578-2 0  9996
2 54089  53.2174  98.5406 0002772 278.6821 284.5534 15.77611624  1309
STARLINK-5177           
1 54090U 22136AR  22303.58334491 -.01159511  00000+0 -76482-2 0  9992
2 54090  53.2174  98.5410 0004242 268.1076 294.6742 15.77549031  1301
STARLINK-5221           
1 54091U 22136AS  22303.58334491 -.01139777  00000+0 -74865-2 0  9998
2 54091  53.2175  98.5378 0004073 269.2170 295.5647 15.77599370  1300
STARLINK-5190           
1 54092U 22136AT  22303.58334491 -.01207776  00000+0 -80082-2 0  9992
2 54092  53.2175  98.5423 0002604 284.8862 277.3857 15.77567876  1308
STARLINK-5213           
1 54093U 22136AU  22303.58334491 -.01211032  00000+0 -79991-2 0  9990
2 54093  53.2174  98.5366 0002044 284.3843 280.8752 15.77667185  1303
STARLINK-5219           
1 54094U 22136AV  22303.58334491 -.01136510  00000+0 -74771-2 0  9999
2 54094  53.2175  98.5394 0003480 281.8154 281.9776 15.77564332  1306
STARLINK-5193           
1 54095U 22136AW  22303.58334491 -.01211865  00000+0 -79878-2 0  9990
2 54095  53.2174  98.5348 0003096 287.1834 279.0543 15.77702294  1303
STARLINK-5188           
1 54096U 22136AX  22303.58334491 -.01201882  00000+0 -79417-2 0  9998
2 54096  53.2174  98.5383 0002575 284.2467 280.0051 15.77630831  1307
STARLINK-5197           
1 54097U 22136AY  22303.58334491 -.01117551  00000+0 -73131-2 0  9995
2 54097  53.2179  98.5321 0001156  69.0098 138.2453 15.77666297  1303
STARLINK-5217           
1 54098U 22136AZ  22303.58334491 -.01223066  00000+0 -80708-2 0  9993
2 54098  53.2175  98.5334 0000621 331.3479 235.3492 15.77732250  1303
STARLINK-5198           
1 54099U 22136BA  22303.58334491 -.01222368  00000+0 -80412-2 0  9990
2 54099  53.2174  98.5309 0002816 273.2251 294.9939 15.77774029  1302
STARLINK-5185           
1 54100U 22136BB  22303.58334491 -.01211747  00000+0 -79959-2 0  9996
2 54100  53.2174  98.5354 0002629 282.9125 282.8448 15.77683553  1306
STARLINK-5204           
1 54101U 22136BC  22303.58334491 -.00960732  00000+0 -63098-2 0  9998
2 54101  53.2176  98.5292 0001441  41.8848 166.9122 15.77612183  1307
STARLINK-5179           
1 54102U 22136BD  22303.58334491 -.01114698  00000+0 -72822-2 0  9997
2 54102  53.2168  98.5311 0002672 252.6452 315.1057 15.77680459  1307
STARLINK-5200           
1 54103U 22136BE  22303.58334491 -.01145925  00000+0 -74839-2 0  9995
2 54103  53.2174  98.5287 0003446 280.9585 288.2872 15.77749006  1307
STARLINK-5203           
1 54104U 22136BF  22303.58334491 -.01150451  00000+0 -75033-2 0  9993
2 54104  53.2174  98.5273 0004346 269.2458 300.4362 15.77776560  1308
FALCON 9 DEB            
1 54105U 22136BG  22303.47099237  .01326765  11607-4  10394-2 0  9998
2 54105  53.2180  98.2085 0052501  77.1127 283.5767 16.10780742  1595
FALCON 9 DEB            
1 54106U 22136BH  22303.46786226  .01246297  11613-4  97957-3 0  9998
2 54106  53.2138  98.1811 0048188  78.8178 281.8270 16.11222887  1597
FALCON 9 DEB            
1 54107U 22136BJ  22303.46023949  .01206745  11655-4  86412-3 0  9999
2 54107  53.2151  98.1226 0045763  71.8403 288.7609 16.12744737  1599
FALCON 9 DEB            
1 54108U 22136BK  22303.45903650  .01405162  11673-4  96083-3 0  9994
2 54108  53.2166  98.1162 0045788  72.7137 287.8903 16.13350993  1591
COSMOS 2561             
1 54109U 22137A   22303.50759410  .00017382  00000+0  30027-3 0  9990
2 54109  97.0756  23.4402 0007762 229.8317 130.2257 15.51011895  1348
COSMOS 2562             
1 54110U 22137B   22303.50413293  .00019681  00000+0  32540-3 0  9994
2 54110  97.0755  23.4448 0010317 239.3096 120.7141 15.52194725  1340
SL-4 R/B                
1 54111U 22137C   22303.30634382  .01799741  22184-5  73875-3 0  9999
2 54111  97.0719  23.9133 0100134  41.6725 355.6603 16.11957971  1367
ONEWEB-0490             
1 54113U 22138A   22303.58334491  .00053359  00000+0  54181-2 0  9992
2 54113  87.4293 214.4027 0011226 263.0081 337.0888 14.90540751  1308
ONEWEB-0492             
1 54114U 22138B   22303.58334491 -.00026586  00000+0 -27571-2 0  9990
2 54114  87.4300 214.4039 0012639 264.9871 325.5426 14.90201858  1309
ONEWEB-0495             
1 54115U 22138C   22303.58334491  .00053541  00000+0  56158-2 0  9993
2 54115  87.4309 214.4103 0013209 284.5550 278.6008 14.89214639  1300
ONEWEB-0497             
1 54116U 22138D   22303.58334491  .00053284  00000+0  54876-2 0  9993
2 54116  87.4318 214.4066 0013259 270.5975 313.1302 14.89953672  1309
ONEWEB-0499             
1 54117U 22138E   22303.58334491  .00053287  00000+0  54496-2 0  9995
2 54117  87.4312 214.4035 0012500 265.2484 326.5022 14.90242656  1306
ONEWEB-0500             
1 54118U 22138F   22303.58334491  .00053610  00000+0  53778-2 0  9998
2 54118  87.4300 214.3979 0009035 265.1577 348.9783 14.91044011  1309
ONEWEB-0501             
1 54119U 22138G   22303.58334491  .00053301  00000+0  55202-2 0  9990
2 54119  87.4279 214.4035 0013735 274.5374 302.7618 14.89723026  1302
ONEWEB-0502             
1 54120U 22138H   22303.58334491  .00053372  00000+0  53894-2 0  9995
2 54120  87.4301 214.3996 0010053 261.6297 344.9639 14.90772827  1302
ONEWEB-0503             
1 54121U 22138J   22303.58334491  .00053192  00000+0  54359-2 0  9993
2 54121  87.4289 214.4037 0012338 265.0105 327.6612 14.90274516  1300
ONEWEB-0504             
1 54122U 22138K   22303.58334491  .00053550  00000+0  53847-2 0  9993
2 54122  87.4307 214.4034 0009026 265.5938 345.8647 14.90947806  1307
ONEWEB-0505             
1 54123U 22138L   22303.58334491  .00053460  00000+0  55890-2 0  9994
2 54123  87.4282 214.4034 0013260 280.0188 286.6315 14.89346969  1309
ONEWEB-0506             
1 54124U 22138M   22303.58334491  .00053426  00000+0  55686-2 0  9990
2 54124  87.4300 214.4073 0014578 281.4972 288.4236 14.89455864  1300
ONEWEB-0507             
1 54125U 22138N   22303.58334491  .00053779  00000+0  53603-2 0  9999
2 54125  87.4301 214.3983 0008051 271.3907 350.1412 14.91306000  1309
ONEWEB-0508             
1 54126U 22138P   22303.58334491  .00053368  00000+0  54155-2 0  9997
2 54126  87.4305 214.4024 0011066 262.6025 338.3577 14.90568547  1300
ONEWEB-0509             
1 54127U 22138Q   22303.58334491  .00053303  00000+0  55091-2 0  9997
2 54127  87.4322 214.4077 0013541 273.0491 306.6382 14.89807741  1303
ONEWEB-0510             
1 54128U 22138R   22303.58334491  .00053689  00000+0  53007-2 0  9990
2 54128  87.4295 214.3959 0008204 283.0860 349.0395 14.91685714  1304
ONEWEB-0511             
1 54129U 22138S   22303.58334491  .00053474  00000+0  53940-2 0  9999
2 54129  87.4307 214.4034 0009917 262.0174 345.7353 14.90816205  1308
ONEWEB-0512             
1 54130U 22138T   22303.58334491  .00107031  00000+0  10977-1 0  9992
2 54130  87.4274 214.4024 0013111 272.4461 308.5950 14.89823506  1307
ONEWEB-0513             
1 54131U 22138U   22303.58334491 -.00922826  00000+0 -12417+0 0  9991
2 54131  87.4426 214.4096 0007945 272.2131 277.9521 14.82226741  1300
ONEWEB-0514             
1 54132U 22138V   22303.58334491  .00053441  00000+0  53803-2 0  9995
2 54132  87.4300 214.3981 0009574 263.1936 346.8514 14.90895529  1309
ONEWEB-0515             
1 54133U 22138W   22303.58334491  .00053298  00000+0  52906-2 0  9999
2 54133  87.4277 214.3940 0008071 276.4652 349.6555 14.91472295  1309
ONEWEB-0516             
1 54134U 22138X   22303.58334491  .00053368  00000+0  53951-2 0  9999
2 54134  87.4304 214.4019 0010201 261.1715 344.2118 14.90726749  1309
ONEWEB-0517             
1 54135U 22138Y   22303.58334491  .00053229  00000+0  54214-2 0  9999
2 54135  87.4286 214.4031 0011742 263.9348 332.6752 14.90414590  1309
ONEWEB-0518             
1 54136U 22138Z   22303.58334491  .00053319  00000+0  54810-2 0  9992
2 54136  87.4302 214.4046 0012595 269.2536 316.8224 14.90034705  1304
ONEWEB-0519             
1 54137U 22138AA  22303.58334491  .00053638  00000+0  53762-2 0  9992
2 54137  87.4306 214.4018 0008904 265.7470 349.3296 14.91077029  1302
ONEWEB-0520             
1 54138U 22138AB  22303.58334491  .00053336  00000+0  54211-2 0  9998
2 54138  87.4315 214.4025 0011372 263.3708 335.6270 14.90500520  1308
